CCSDS_OMM_VERS = 2.0
CREATION_DATE  = 
ORIGINATOR     = 

OBJECT_NAME    = STARLINK-36112
OBJECT_ID      = 2025-286V
CENTER_NAME    = EARTH
REF_FRAME      = TEME
TIME_SYSTEM    = UTC
MEAN_ELEMENT_THEORY = SGP/SGP4

EPOCH          = 2025-12-27T04:00:01.998720
MEAN_MOTION    = 15.52336007
ECCENTRICITY   = .0000963
INCLINATION    = 53.1590
RA_OF_ASC_NODE = 338.7078
ARG_OF_PERICENTER = 105.0704
MEAN_ANOMALY   = 315.9883

EPHEMERIS_TYPE = 0
CLASSIFICATION_TYPE = U
NORAD_CAT_ID   = 66944
ELEMENT_SET_NO = 999
REV_AT_EPOCH   = 430
BSTAR          = -.345E-1
MEAN_MOTION_DOT = -.1885966E-1
MEAN_MOTION_DDOT = 0

CCSDS_OMM_VERS = 2.0
CREATION_DATE  = 
ORIGINATOR     = 

OBJECT_NAME    = STARLINK-36110
OBJECT_ID      = 2025-286W
CENTER_NAME    = EARTH
REF_FRAME      = TEME
TIME_SYSTEM    = UTC
MEAN_ELEMENT_THEORY = SGP/SGP4

EPOCH          = 2025-12-27T04:00:01.998720
MEAN_MOTION    = 15.52342832
ECCENTRICITY   = .0000922
INCLINATION    = 53.1592
RA_OF_ASC_NODE = 338.7033
ARG_OF_PERICENTER = 111.1444
MEAN_ANOMALY   = 311.8315

EPHEMERIS_TYPE = 0
CLASSIFICATION_TYPE = U
NORAD_CAT_ID   = 66945
ELEMENT_SET_NO = 999
REV_AT_EPOCH   = 431
BSTAR          = -.34855E-1
MEAN_MOTION_DOT = -.193797E-1
MEAN_MOTION_DDOT = 0

CCSDS_OMM_VERS = 2.0
CREATION_DATE  = 
ORIGINATOR     = 

OBJECT_NAME    = STARLINK-36115
OBJECT_ID      = 2025-286X
CENTER_NAME    = EARTH
REF_FRAME      = TEME
TIME_SYSTEM    = UTC
MEAN_ELEMENT_THEORY = SGP/SGP4

EPOCH          = 2025-12-27T04:00:01.998720
MEAN_MOTION    = 15.52331965
ECCENTRICITY   = .0001064
INCLINATION    = 53.1594
RA_OF_ASC_NODE = 338.7000
ARG_OF_PERICENTER = 113.9867
MEAN_ANOMALY   = 310.9089

EPHEMERIS_TYPE = 0
CLASSIFICATION_TYPE = U
NORAD_CAT_ID   = 66946
ELEMENT_SET_NO = 999
REV_AT_EPOCH   = 430
BSTAR          = -.34394E-1
MEAN_MOTION_DOT = -.1880662E-1
MEAN_MOTION_DDOT = 0

CCSDS_OMM_VERS = 2.0
CREATION_DATE  = 
ORIGINATOR     = 

OBJECT_NAME    = STARLINK-36089
OBJECT_ID      = 2025-286Y
CENTER_NAME    = EARTH
REF_FRAME      = TEME
TIME_SYSTEM    = UTC
MEAN_ELEMENT_THEORY = SGP/SGP4

EPOCH          = 2025-12-27T04:00:01.998720
MEAN_MOTION    = 15.52333310
ECCENTRICITY   = .0001089
INCLINATION    = 53.1595
RA_OF_ASC_NODE = 338.6918
ARG_OF_PERICENTER = 113.7687
MEAN_ANOMALY   = 314.9589

EPHEMERIS_TYPE = 0
CLASSIFICATION_TYPE = U
NORAD_CAT_ID   = 66947
ELEMENT_SET_NO = 999
REV_AT_EPOCH   = 430
BSTAR          = -.34443E-1
MEAN_MOTION_DOT = -.1883101E-1
MEAN_MOTION_DDOT = 0

CCSDS_OMM_VERS = 2.0
CREATION_DATE  = 
ORIGINATOR     = 

OBJECT_NAME    = STARLINK-36116
OBJECT_ID      = 2025-286Z
CENTER_NAME    = EARTH
REF_FRAME      = TEME
TIME_SYSTEM    = UTC
MEAN_ELEMENT_THEORY = SGP/SGP4

EPOCH          = 2025-12-27T04:00:01.998720
MEAN_MOTION    = 15.52335674
ECCENTRICITY   = .000103
INCLINATION    = 53.1595
RA_OF_ASC_NODE = 338.6958
ARG_OF_PERICENTER = 115.6936
MEAN_ANOMALY   = 311.1183

EPHEMERIS_TYPE = 0
CLASSIFICATION_TYPE = U
NORAD_CAT_ID   = 66948
ELEMENT_SET_NO = 999
REV_AT_EPOCH   = 430
BSTAR          = -.34496E-1
MEAN_MOTION_DOT = -.1885808E-1
MEAN_MOTION_DDOT = 0

CCSDS_OMM_VERS = 2.0
CREATION_DATE  = 
ORIGINATOR     = 

OBJECT_NAME    = STARLINK-36096
OBJECT_ID      = 2025-286AA
CENTER_NAME    = EARTH
REF_FRAME      = TEME
TIME_SYSTEM    = UTC
MEAN_ELEMENT_THEORY = SGP/SGP4

EPOCH          = 2025-12-27T04:00:01.998720
MEAN_MOTION    = 15.52345948
ECCENTRICITY   = .0001062
INCLINATION    = 53.1596
RA_OF_ASC_NODE = 338.6877
ARG_OF_PERICENTER = 104.4551
MEAN_ANOMALY   = 326.1887

EPHEMERIS_TYPE = 0
CLASSIFICATION_TYPE = U
NORAD_CAT_ID   = 66949
ELEMENT_SET_NO = 999
REV_AT_EPOCH   = 431
BSTAR          = -.34975E-1
MEAN_MOTION_DOT = -.1944203E-1
MEAN_MOTION_DDOT = 0

CCSDS_OMM_VERS = 2.0
CREATION_DATE  = 
ORIGINATOR     = 

OBJECT_NAME    = STARLINK-36111
OBJECT_ID      = 2025-286AB
CENTER_NAME    = EARTH
REF_FRAME      = TEME
TIME_SYSTEM    = UTC
MEAN_ELEMENT_THEORY = SGP/SGP4

EPOCH          = 2025-12-27T04:00:01.998720
MEAN_MOTION    = 15.52342253
ECCENTRICITY   = .0000941
INCLINATION    = 53.1594
RA_OF_ASC_NODE = 338.6802
ARG_OF_PERICENTER = 98.6020
MEAN_ANOMALY   = 335.8748

EPHEMERIS_TYPE = 0
CLASSIFICATION_TYPE = U
NORAD_CAT_ID   = 66950
ELEMENT_SET_NO = 999
REV_AT_EPOCH   = 430
BSTAR          = -.34751E-1
MEAN_MOTION_DOT = -.1932764E-1
MEAN_MOTION_DDOT = 0

CCSDS_OMM_VERS = 2.0
CREATION_DATE  = 
ORIGINATOR     = 

OBJECT_NAME    = STARLINK-35999
OBJECT_ID      = 2025-286AC
CENTER_NAME    = EARTH
REF_FRAME      = TEME
TIME_SYSTEM    = UTC
MEAN_ELEMENT_THEORY = SGP/SGP4

EPOCH          = 2025-12-27T04:00:01.998720
MEAN_MOTION    = 15.52339586
ECCENTRICITY   = .0000931
INCLINATION    = 53.1594
RA_OF_ASC_NODE = 338.6762
ARG_OF_PERICENTER = 110.7278
MEAN_ANOMALY   = 325.6675

EPHEMERIS_TYPE = 0
CLASSIFICATION_TYPE = U
NORAD_CAT_ID   = 66951
ELEMENT_SET_NO = 999
REV_AT_EPOCH   = 431
BSTAR          = -.34716E-1
MEAN_MOTION_DOT = -.1930824E-1
MEAN_MOTION_DDOT = 0

CCSDS_OMM_VERS = 2.0
CREATION_DATE  = 
ORIGINATOR     = 

OBJECT_NAME    = STARLINK-36122
OBJECT_ID      = 2025-286AD
CENTER_NAME    = EARTH
REF_FRAME      = TEME
TIME_SYSTEM    = UTC
MEAN_ELEMENT_THEORY = SGP/SGP4

EPOCH          = 2025-12-27T04:00:01.998720
MEAN_MOTION    = 15.52331732
ECCENTRICITY   = .0000907
INCLINATION    = 53.1597
RA_OF_ASC_NODE = 338.6841
ARG_OF_PERICENTER = 107.2433
MEAN_ANOMALY   = 325.3196

EPHEMERIS_TYPE = 0
CLASSIFICATION_TYPE = U
NORAD_CAT_ID   = 66952
ELEMENT_SET_NO = 999
REV_AT_EPOCH   = 430
BSTAR          = -.34405E-1
MEAN_MOTION_DOT = -.1881089E-1
MEAN_MOTION_DDOT = 0

CCSDS_OMM_VERS = 2.0
CREATION_DATE  = 
ORIGINATOR     = 

OBJECT_NAME    = HULIANWANG DIGUI-114
OBJECT_ID      = 2025-287A
CENTER_NAME    = EARTH
REF_FRAME      = TEME
TIME_SYSTEM    = UTC
MEAN_ELEMENT_THEORY = SGP/SGP4

EPOCH          = 2025-12-20T09:09:14.655168
MEAN_MOTION    = 13.66161866
ECCENTRICITY   = .00096738
INCLINATION    = 86.4960
RA_OF_ASC_NODE = 343.3747
ARG_OF_PERICENTER = 185.0352
MEAN_ANOMALY   = 175.0710

EPHEMERIS_TYPE = 0
CLASSIFICATION_TYPE = U
NORAD_CAT_ID   = 66953
ELEMENT_SET_NO = 999
REV_AT_EPOCH   = 157
BSTAR          = .3033618E-5
MEAN_MOTION_DOT = .19E-6
MEAN_MOTION_DDOT = 0

CCSDS_OMM_VERS = 2.0
CREATION_DATE  = 
ORIGINATOR     = 

OBJECT_NAME    = HULIANWANG DIGUI-115
OBJECT_ID      = 2025-287B
CENTER_NAME    = EARTH
REF_FRAME      = TEME
TIME_SYSTEM    = UTC
MEAN_ELEMENT_THEORY = SGP/SGP4

EPOCH          = 2025-12-24T22:10:56.489088
MEAN_MOTION    = 13.63539042
ECCENTRICITY   = .0003385
INCLINATION    = 86.5036
RA_OF_ASC_NODE = 341.7372
ARG_OF_PERICENTER = 109.9724
MEAN_ANOMALY   = 250.1798

EPHEMERIS_TYPE = 0
CLASSIFICATION_TYPE = U
NORAD_CAT_ID   = 66954
ELEMENT_SET_NO = 999
REV_AT_EPOCH   = 219
BSTAR          = .8442119E-5
MEAN_MOTION_DOT = .23E-6
MEAN_MOTION_DDOT = 0

CCSDS_OMM_VERS = 2.0
CREATION_DATE  = 
ORIGINATOR     = 

OBJECT_NAME    = HULIANWANG DIGUI-116
OBJECT_ID      = 2025-287C
CENTER_NAME    = EARTH
REF_FRAME      = TEME
TIME_SYSTEM    = UTC
MEAN_ELEMENT_THEORY = SGP/SGP4

EPOCH          = 2025-12-24T23:52:55.515936
MEAN_MOTION    = 13.64194122
ECCENTRICITY   = .00016332
INCLINATION    = 86.4919
RA_OF_ASC_NODE = 341.6856
ARG_OF_PERICENTER = 94.3011
MEAN_ANOMALY   = 265.8333

EPHEMERIS_TYPE = 0
CLASSIFICATION_TYPE = U
NORAD_CAT_ID   = 66955
ELEMENT_SET_NO = 999
REV_AT_EPOCH   = 220
BSTAR          = .1652864E-3
MEAN_MOTION_DOT = .148E-5
MEAN_MOTION_DDOT = 0

CCSDS_OMM_VERS = 2.0
CREATION_DATE  = 
ORIGINATOR     = 

OBJECT_NAME    = HULIANWANG DIGUI-117
OBJECT_ID      = 2025-287D
CENTER_NAME    = EARTH
REF_FRAME      = TEME
TIME_SYSTEM    = UTC
MEAN_ELEMENT_THEORY = SGP/SGP4

EPOCH          = 2025-12-24T22:03:29.281824
MEAN_MOTION    = 13.64670553
ECCENTRICITY   = .00010447
INCLINATION    = 86.4976
RA_OF_ASC_NODE = 341.7257
ARG_OF_PERICENTER = 103.5815
MEAN_ANOMALY   = 256.5458

EPHEMERIS_TYPE = 0
CLASSIFICATION_TYPE = U
NORAD_CAT_ID   = 66956
ELEMENT_SET_NO = 999
REV_AT_EPOCH   = 219
BSTAR          = .9025962E-5
MEAN_MOTION_DOT = .24E-6
MEAN_MOTION_DDOT = 0

CCSDS_OMM_VERS = 2.0
CREATION_DATE  = 
ORIGINATOR     = 

OBJECT_NAME    = HULIANWANG DIGUI-118
OBJECT_ID      = 2025-287E
CENTER_NAME    = EARTH
REF_FRAME      = TEME
TIME_SYSTEM    = UTC
MEAN_ELEMENT_THEORY = SGP/SGP4

EPOCH          = 2025-12-21T00:50:13.849728
MEAN_MOTION    = 13.67510110
ECCENTRICITY   = .00054729
INCLINATION    = 86.4946
RA_OF_ASC_NODE = 343.1304
ARG_OF_PERICENTER = 170.9065
MEAN_ANOMALY   = 189.2194

EPHEMERIS_TYPE = 0
CLASSIFICATION_TYPE = U
NORAD_CAT_ID   = 66957
ELEMENT_SET_NO = 999
REV_AT_EPOCH   = 166
BSTAR          = .13223305E-3
MEAN_MOTION_DOT = .128E-5
MEAN_MOTION_DDOT = 0

CCSDS_OMM_VERS = 2.0
CREATION_DATE  = 
ORIGINATOR     = 

OBJECT_NAME    = CZ-6A R/B
OBJECT_ID      = 2025-287F
CENTER_NAME    = EARTH
REF_FRAME      = TEME
TIME_SYSTEM    = UTC
MEAN_ELEMENT_THEORY = SGP/SGP4

EPOCH          = 2025-12-26T23:27:51.481152
MEAN_MOTION    = 13.94921923
ECCENTRICITY   = .01070558
INCLINATION    = 86.5066
RA_OF_ASC_NODE = 340.6879
ARG_OF_PERICENTER = 59.3506
MEAN_ANOMALY   = 301.8169

EPHEMERIS_TYPE = 0
CLASSIFICATION_TYPE = U
NORAD_CAT_ID   = 66958
ELEMENT_SET_NO = 999
REV_AT_EPOCH   = 252
BSTAR          = .75983134E-4
MEAN_MOTION_DOT = .126E-5
MEAN_MOTION_DDOT = 0

